SPACEMOBILE-006         
1 67232U 25309A   26120.45397706  .00002980  00000+0  15880-3 0  9994
2 67232  52.9938 190.2191 0010644 351.9612   8.1209 15.18292771 19343
